{"id":"nationwidechildrens","home":"https://www.nationwidechildrens.org","collection":"OH","common_name":"Nationwide Children's Hospital","location":{"street":"700 Children's Drive","city":"Columbus","state":"OH","zip":"43205"},"contact":{"phone_local":"6147222000","phone_free":"8007928401","email":"communityrelations@nationwidechildrens.org"}}
{"id":"atlanticare","home":"https://www.atlanticare.org","collection":"NJ","common_name":"AtlantiCare Regional Medical Center","location":{"street":"1925 Pacific Avenue","city":"Atlantic City","state":"NJ","zip":"08401"},"contact":{"phone_local":"6093454000","phone_free":"8885691000"}}
{"id":"uvahealth","home":"https://uvahealth.com","collection":"VA","common_name":"University of Virginia Health System","location":{"street":"1215 Lee Street","city":"Charlottesville","state":"VA","zip":"22903"},"contact":{"phone_local":"4349240000","phone_free":"4349240000"}}
{"id":"jfkflorida","home":"https://jfkmc.com","collection":"FL","common_name":"JFK Medical Center","location":{"street":"5301 South Congress Ave","city":"Atlantis","state":"FL","zip":"33462"},"contact":{"phone_local":"5619657300","phone_free":"5619657300"}}
{"id":"dukehealth","home":"https://www.dukehealth.org","collection":"NC","common_name":"Duke University Hospital","location":{"street":"5213 S Alston Ave","city":"Durham","state":"NC","zip":"27713"},"contact":{"phone_local":"9195513488","phone_free":"9195513488"}}
{"id":"aurorabaycare","common_name":"Aurora BayCare Medical Center","contact":{"phone_free":"8003262250","phone_local":"8003262250"},"home":"https://www.aurorahealthcare.org","collection":"WI","location":{"city":"Milwaukee","state":"WI","street":"750 W. Virginia St","zip":"53204"}}
{"id":"auroraburl","common_name":"Aurora Medical Center in Burlington","contact":{"phone_free":"8003262250","phone_local":"8003262250"},"home":"https://www.aurorahealthcare.org","collection":"WI","location":{"city":"Milwaukee","state":"WI","street":"750 W. Virginia St","zip":"53204"}}
{"id":"aurorakenosha","common_name":"Aurora Medical Center in Kenosha","contact":{"phone_free":"8003262250","phone_local":"8003262250"},"home":"https://www.aurorahealthcare.org","collection":"WI","location":{"city":"Milwaukee","state":"WI","street":"750 W. Virginia St","zip":"53204"}}
{"id":"auroragrafton","common_name":"Aurora Medical Center in Grafton","contact":{"phone_free":"8003262250","phone_local":"8003262250"},"home":"https://www.aurorahealthcare.org","collection":"WI","location":{"city":"Milwaukee","state":"WI","street":"750 W. Virginia St","zip":"53204"}}
{"id":"auroralakeland","common_name":"Aurora Medical Center in Lakeland","contact":{"phone_free":"8003262250","phone_local":"8003262250"},"home":"https://www.aurorahealthcare.org","collection":"WI","location":{"city":"Milwaukee","state":"WI","street":"750 W. Virginia St","zip":"53204"}}
{"id":"auroramanitowoc","common_name":"Aurora Medical Center in Manitowoc County","contact":{"phone_free":"8003262250","phone_local":"8003262250"},"home":"https://www.aurorahealthcare.org","collection":"WI","location":{"city":"Milwaukee","state":"WI","street":"750 W. Virginia St","zip":"53204"}}
{"id":"auroraoshkosh","common_name":"Aurora Medical Center in Oshkosh","contact":{"phone_free":"8003262250","phone_local":"8003262250"},"home":"https://www.aurorahealthcare.org","collection":"WI","location":{"city":"Milwaukee","state":"WI","street":"750 W. Virginia St","zip":"53204"}}
{"id":"aurorapsych","common_name":"Aurora Psychiatric Hospital","contact":{"phone_free":"8003262250","phone_local":"8003262250"},"home":"https://www.aurorahealthcare.org","collection":"WI","location":{"city":"Milwaukee","state":"WI","street":"750 W. Virginia St","zip":"53204"}}
{"id":"aurorasheboygan","common_name":"Aurora Sheboygan Memorial Medical Center","contact":{"phone_free":"8003262250","phone_local":"8003262250"},"home":"https://www.aurorahealthcare.org","collection":"WI","location":{"city":"Milwaukee","state":"WI","street":"750 W. Virginia St","zip":"53204"}}
